{
"type": "FeatureCollection",
"name": "governorates",
"crs": { "type": "name", "properties": { "name": "urn:ogc:def:crs:OGC:1.3:CRS84" } },
"features": [
{ "type": "Feature", "properties": { "admin_level": 2, "name": "Tubas", "name1": null, "name2": null, "name3": null, "x_coord": 35.43971712, "y_coord": 32.29453927, "adm4_name": null, "adm4_name1": null, "adm4_name2": null, "adm4_name3": null, "adm4_pcode": null, "adm3_name": null, "adm3_name1": null, "adm3_name2": null, "adm3_name3": null, "adm3_pcode": null, "adm2_name": "Tubas", "adm2_name1": null, "adm2_name2": null, "adm2_name3": null, "adm2_pcode": "PS0105", "adm1_name": "West Bank", "adm1_name1": null, "adm1_name2": null, "adm1_name3": null, "adm1_pcode": "PS01", "adm0_name": "State of Palestine", "adm0_name1": null, "adm0_name2": null, "adm0_name3": null, "adm0_pcode": "PS", "valid_on": "2023-10-19", "valid_to": null, "version": "v01", "lang": "en", "lang1": null, "lang2": null, "lang3": null }, "geometry": { "type": "Point", "coordinates": [ 35.439717124000026, 32.294539272000122 ] } },
{ "type": "Feature", "properties": { "admin_level": 2, "name": "Tulkarm", "name1": null, "name2": null, "name3": null, "x_coord": 35.08429388, "y_coord": 32.32751533, "adm4_name": null, "adm4_name1": null, "adm4_name2": null, "adm4_name3": null, "adm4_pcode": null, "adm3_name": null, "adm3_name1": null, "adm3_name2": null, "adm3_name3": null, "adm3_pcode": null, "adm2_name": "Tulkarm", "adm2_name1": null, "adm2_name2": null, "adm2_name3": null, "adm2_pcode": "PS0110", "adm1_name": "West Bank", "adm1_name1": null, "adm1_name2": null, "adm1_name3": null, "adm1_pcode": "PS01", "adm0_name": "State of Palestine", "adm0_name1": null, "adm0_name2": null, "adm0_name3": null, "adm0_pcode": "PS", "valid_on": "2023-10-19", "valid_to": null, "version": "v01", "lang": "en", "lang1": null, "lang2": null, "lang3": null }, "geometry": { "type": "Point", "coordinates": [ 35.084293880000132, 32.327515329000164 ] } },
{ "type": "Feature", "properties": { "admin_level": 2, "name": "Nablus", "name1": null, "name2": null, "name3": null, "x_coord": 35.30167525, "y_coord": 32.1792899, "adm4_name": null, "adm4_name1": null, "adm4_name2": null, "adm4_name3": null, "adm4_pcode": null, "adm3_name": null, "adm3_name1": null, "adm3_name2": null, "adm3_name3": null, "adm3_pcode": null, "adm2_name": "Nablus", "adm2_name1": null, "adm2_name2": null, "adm2_name3": null, "adm2_pcode": "PS0115", "adm1_name": "West Bank", "adm1_name1": null, "adm1_name2": null, "adm1_name3": null, "adm1_pcode": "PS01", "adm0_name": "State of Palestine", "adm0_name1": null, "adm0_name2": null, "adm0_name3": null, "adm0_pcode": "PS", "valid_on": "2023-10-19", "valid_to": null, "version": "v01", "lang": "en", "lang1": null, "lang2": null, "lang3": null }, "geometry": { "type": "Point", "coordinates": [ 35.301675255000134, 32.179289897000103 ] } },
{ "type": "Feature", "properties": { "admin_level": 2, "name": "Qalqilya", "name1": null, "name2": null, "name3": null, "x_coord": 35.06662679, "y_coord": 32.1808935, "adm4_name": null, "adm4_name1": null, "adm4_name2": null, "adm4_name3": null, "adm4_pcode": null, "adm3_name": null, "adm3_name1": null, "adm3_name2": null, "adm3_name3": null, "adm3_pcode": null, "adm2_name": "Qalqilya", "adm2_name1": null, "adm2_name2": null, "adm2_name3": null, "adm2_pcode": "PS0120", "adm1_name": "West Bank", "adm1_name1": null, "adm1_name2": null, "adm1_name3": null, "adm1_pcode": "PS01", "adm0_name": "State of Palestine", "adm0_name1": null, "adm0_name2": null, "adm0_name3": null, "adm0_pcode": "PS", "valid_on": "2023-10-19", "valid_to": null, "version": "v01", "lang": "en", "lang1": null, "lang2": null, "lang3": null }, "geometry": { "type": "Point", "coordinates": [ 35.066626786000086, 32.18089349800016 ] } },
{ "type": "Feature", "properties": { "admin_level": 2, "name": "Salfit", "name1": null, "name2": null, "name3": null, "x_coord": 35.12084982, "y_coord": 32.1122628, "adm4_name": null, "adm4_name1": null, "adm4_name2": null, "adm4_name3": null, "adm4_pcode": null, "adm3_name": null, "adm3_name1": null, "adm3_name2": null, "adm3_name3": null, "adm3_pcode": null, "adm2_name": "Salfit", "adm2_name1": null, "adm2_name2": null, "adm2_name3": null, "adm2_pcode": "PS0125", "adm1_name": "West Bank", "adm1_name1": null, "adm1_name2": null, "adm1_name3": null, "adm1_pcode": "PS01", "adm0_name": "State of Palestine", "adm0_name1": null, "adm0_name2": null, "adm0_name3": null, "adm0_pcode": "PS", "valid_on": "2023-10-19", "valid_to": null, "version": "v01", "lang": "en", "lang1": null, "lang2": null, "lang3": null }, "geometry": { "type": "Point", "coordinates": [ 35.12084982000016, 32.11226280000011 ] } },
{ "type": "Feature", "properties": { "admin_level": 2, "name": "Ramallah", "name1": null, "name2": null, "name3": null, "x_coord": 35.19710773, "y_coord": 31.94290923, "adm4_name": null, "adm4_name1": null, "adm4_name2": null, "adm4_name3": null, "adm4_pcode": null, "adm3_name": null, "adm3_name1": null, "adm3_name2": null, "adm3_name3": null, "adm3_pcode": null, "adm2_name": "Ramallah", "adm2_name1": null, "adm2_name2": null, "adm2_name3": null, "adm2_pcode": "PS0130", "adm1_name": "West Bank", "adm1_name1": null, "adm1_name2": null, "adm1_name3": null, "adm1_pcode": "PS01", "adm0_name": "State of Palestine", "adm0_name1": null, "adm0_name2": null, "adm0_name3": null, "adm0_pcode": "PS", "valid_on": "2023-10-19", "valid_to": null, "version": "v01", "lang": "en", "lang1": null, "lang2": null, "lang3": null }, "geometry": { "type": "Point", "coordinates": [ 35.197107733000053, 31.942909234000183 ] } },
{ "type": "Feature", "properties": { "admin_level": 2, "name": "Jericho", "name1": null, "name2": null, "name3": null, "x_coord": 35.47840415, "y_coord": 31.96817626, "adm4_name": null, "adm4_name1": null, "adm4_name2": null, "adm4_name3": null, "adm4_pcode": null, "adm3_name": null, "adm3_name1": null, "adm3_name2": null, "adm3_name3": null, "adm3_pcode": null, "adm2_name": "Jericho", "adm2_name1": null, "adm2_name2": null, "adm2_name3": null, "adm2_pcode": "PS0135", "adm1_name": "West Bank", "adm1_name1": null, "adm1_name2": null, "adm1_name3": null, "adm1_pcode": "PS01", "adm0_name": "State of Palestine", "adm0_name1": null, "adm0_name2": null, "adm0_name3": null, "adm0_pcode": "PS", "valid_on": "2023-10-19", "valid_to": null, "version": "v01", "lang": "en", "lang1": null, "lang2": null, "lang3": null }, "geometry": { "type": "Point", "coordinates": [ 35.478404146, 31.968176257000096 ] } },
{ "type": "Feature", "properties": { "admin_level": 2, "name": "Jerusalem", "name1": null, "name2": null, "name3": null, "x_coord": 35.30230701, "y_coord": 31.80150726, "adm4_name": null, "adm4_name1": null, "adm4_name2": null, "adm4_name3": null, "adm4_pcode": null, "adm3_name": null, "adm3_name1": null, "adm3_name2": null, "adm3_name3": null, "adm3_pcode": null, "adm2_name": "Jerusalem", "adm2_name1": null, "adm2_name2": null, "adm2_name3": null, "adm2_pcode": "PS0140", "adm1_name": "West Bank", "adm1_name1": null, "adm1_name2": null, "adm1_name3": null, "adm1_pcode": "PS01", "adm0_name": "State of Palestine", "adm0_name1": null, "adm0_name2": null, "adm0_name3": null, "adm0_pcode": "PS", "valid_on": "2023-10-19", "valid_to": null, "version": "v01", "lang": "en", "lang1": null, "lang2": null, "lang3": null }, "geometry": { "type": "Point", "coordinates": [ 35.302307008000071, 31.801507262000143 ] } },
{ "type": "Feature", "properties": { "admin_level": 2, "name": "Bethlehem", "name1": null, "name2": null, "name3": null, "x_coord": 35.30687435, "y_coord": 31.60383395, "adm4_name": null, "adm4_name1": null, "adm4_name2": null, "adm4_name3": null, "adm4_pcode": null, "adm3_name": null, "adm3_name1": null, "adm3_name2": null, "adm3_name3": null, "adm3_pcode": null, "adm2_name": "Bethlehem", "adm2_name1": null, "adm2_name2": null, "adm2_name3": null, "adm2_pcode": "PS0145", "adm1_name": "West Bank", "adm1_name1": null, "adm1_name2": null, "adm1_name3": null, "adm1_pcode": "PS01", "adm0_name": "State of Palestine", "adm0_name1": null, "adm0_name2": null, "adm0_name3": null, "adm0_pcode": "PS", "valid_on": "2023-10-19", "valid_to": null, "version": "v01", "lang": "en", "lang1": null, "lang2": null, "lang3": null }, "geometry": { "type": "Point", "coordinates": [ 35.306874350000157, 31.603833946 ] } },
{ "type": "Feature", "properties": { "admin_level": 2, "name": "Hebron", "name1": null, "name2": null, "name3": null, "x_coord": 35.11687939, "y_coord": 31.50686154, "adm4_name": null, "adm4_name1": null, "adm4_name2": null, "adm4_name3": null, "adm4_pcode": null, "adm3_name": null, "adm3_name1": null, "adm3_name2": null, "adm3_name3": null, "adm3_pcode": null, "adm2_name": "Hebron", "adm2_name1": null, "adm2_name2": null, "adm2_name3": null, "adm2_pcode": "PS0150", "adm1_name": "West Bank", "adm1_name1": null, "adm1_name2": null, "adm1_name3": null, "adm1_pcode": "PS01", "adm0_name": "State of Palestine", "adm0_name1": null, "adm0_name2": null, "adm0_name3": null, "adm0_pcode": "PS", "valid_on": "2023-10-19", "valid_to": null, "version": "v01", "lang": "en", "lang1": null, "lang2": null, "lang3": null }, "geometry": { "type": "Point", "coordinates": [ 35.116879386000107, 31.506861542000138 ] } },
{ "type": "Feature", "properties": { "admin_level": 2, "name": "North Gaza", "name1": null, "name2": null, "name3": null, "x_coord": 34.50641578, "y_coord": 31.54708331, "adm4_name": null, "adm4_name1": null, "adm4_name2": null, "adm4_name3": null, "adm4_pcode": null, "adm3_name": null, "adm3_name1": null, "adm3_name2": null, "adm3_name3": null, "adm3_pcode": null, "adm2_name": "North Gaza", "adm2_name1": null, "adm2_name2": null, "adm2_name3": null, "adm2_pcode": "PS0255", "adm1_name": "Gaza Strip", "adm1_name1": null, "adm1_name2": null, "adm1_name3": null, "adm1_pcode": "PS02", "adm0_name": "State of Palestine", "adm0_name1": null, "adm0_name2": null, "adm0_name3": null, "adm0_pcode": "PS", "valid_on": "2023-10-19", "valid_to": null, "version": "v01", "lang": "en", "lang1": null, "lang2": null, "lang3": null }, "geometry": { "type": "Point", "coordinates": [ 34.50641577500005, 31.54708330700015 ] } },
{ "type": "Feature", "properties": { "admin_level": 2, "name": "Gaza", "name1": null, "name2": null, "name3": null, "x_coord": 34.44515432, "y_coord": 31.48628557, "adm4_name": null, "adm4_name1": null, "adm4_name2": null, "adm4_name3": null, "adm4_pcode": null, "adm3_name": null, "adm3_name1": null, "adm3_name2": null, "adm3_name3": null, "adm3_pcode": null, "adm2_name": "Gaza", "adm2_name1": null, "adm2_name2": null, "adm2_name3": null, "adm2_pcode": "PS0260", "adm1_name": "Gaza Strip", "adm1_name1": null, "adm1_name2": null, "adm1_name3": null, "adm1_pcode": "PS02", "adm0_name": "State of Palestine", "adm0_name1": null, "adm0_name2": null, "adm0_name3": null, "adm0_pcode": "PS", "valid_on": "2023-10-19", "valid_to": null, "version": "v01", "lang": "en", "lang1": null, "lang2": null, "lang3": null }, "geometry": { "type": "Point", "coordinates": [ 34.445154318000164, 31.486285568000142 ] } },
{ "type": "Feature", "properties": { "admin_level": 2, "name": "Deir Al-Balah", "name1": null, "name2": null, "name3": null, "x_coord": 34.37408686, "y_coord": 31.42029962, "adm4_name": null, "adm4_name1": null, "adm4_name2": null, "adm4_name3": null, "adm4_pcode": null, "adm3_name": null, "adm3_name1": null, "adm3_name2": null, "adm3_name3": null, "adm3_pcode": null, "adm2_name": "Deir Al-Balah", "adm2_name1": null, "adm2_name2": null, "adm2_name3": null, "adm2_pcode": "PS0265", "adm1_name": "Gaza Strip", "adm1_name1": null, "adm1_name2": null, "adm1_name3": null, "adm1_pcode": "PS02", "adm0_name": "State of Palestine", "adm0_name1": null, "adm0_name2": null, "adm0_name3": null, "adm0_pcode": "PS", "valid_on": "2023-10-19", "valid_to": null, "version": "v01", "lang": "en", "lang1": null, "lang2": null, "lang3": null }, "geometry": { "type": "Point", "coordinates": [ 34.374086861000023, 31.420299623000119 ] } },
{ "type": "Feature", "properties": { "admin_level": 2, "name": "Khan Younis", "name1": null, "name2": null, "name3": null, "x_coord": 34.31790166, "y_coord": 31.32779615, "adm4_name": null, "adm4_name1": null, "adm4_name2": null, "adm4_name3": null, "adm4_pcode": null, "adm3_name": null, "adm3_name1": null, "adm3_name2": null, "adm3_name3": null, "adm3_pcode": null, "adm2_name": "Khan Younis", "adm2_name1": null, "adm2_name2": null, "adm2_name3": null, "adm2_pcode": "PS0270", "adm1_name": "Gaza Strip", "adm1_name1": null, "adm1_name2": null, "adm1_name3": null, "adm1_pcode": "PS02", "adm0_name": "State of Palestine", "adm0_name1": null, "adm0_name2": null, "adm0_name3": null, "adm0_pcode": "PS", "valid_on": "2023-10-19", "valid_to": null, "version": "v01", "lang": "en", "lang1": null, "lang2": null, "lang3": null }, "geometry": { "type": "Point", "coordinates": [ 34.317901663000157, 31.327796148000061 ] } },
{ "type": "Feature", "properties": { "admin_level": 2, "name": "Rafah", "name1": null, "name2": null, "name3": null, "x_coord": 34.28271155, "y_coord": 31.28177718, "adm4_name": null, "adm4_name1": null, "adm4_name2": null, "adm4_name3": null, "adm4_pcode": null, "adm3_name": null, "adm3_name1": null, "adm3_name2": null, "adm3_name3": null, "adm3_pcode": null, "adm2_name": "Rafah", "adm2_name1": null, "adm2_name2": null, "adm2_name3": null, "adm2_pcode": "PS0275", "adm1_name": "Gaza Strip", "adm1_name1": null, "adm1_name2": null, "adm1_name3": null, "adm1_pcode": "PS02", "adm0_name": "State of Palestine", "adm0_name1": null, "adm0_name2": null, "adm0_name3": null, "adm0_pcode": "PS", "valid_on": "2023-10-19", "valid_to": null, "version": "v01", "lang": "en", "lang1": null, "lang2": null, "lang3": null }, "geometry": { "type": "Point", "coordinates": [ 34.282711553000127, 31.281777178000084 ] } }
]
}
